norad_id,name,regime,epoch,line1,line2,inclination,eccentricity,mean_motion,raan,arg_pericenter,mean_anomaly
837,OPS 3674 (VELA 4),HAO,23148.54377865,1 00837U 64040B   23148.54377865  .00000592  00000-0  00000-0 0    15,2 00837  47.0878 143.5936 3047925 285.2855   0.3872  0.23998346 52045,47.0878,0.3047925,0.23998346,143.5936,285.2855,0.3872
837,OPS 3674 (VELA 4),HAO,23152.70248242,1 00837U 64040B   23152.70248242  .00000679  00000-0  00000-0 0    10,2 00837  47.0980 143.5359 3047175 285.0070   0.0719  0.23999504 52068,47.098,0.3047175,0.23999504,143.5359,285.007,0.0719
837,OPS 3674 (VELA 4),HAO,23162.40910654,1 00837U 64040B   23162.40910654  .00000475  00000-0  00000-0 0    15,2 00837  47.1370 143.4063 3054564 284.3849 119.4584  0.23993692 52099,47.137,0.3054564,0.23993692,143.4063,284.3849,119.4584
837,OPS 3674 (VELA 4),HAO,23173.52549588,1 00837U 64040B   23173.52549588  .00000361  00000-0  00000-0 0    18,2 00837  47.1853 143.2106 3057795 284.0124   0.3754  0.23997432 52119,47.1853,0.3057795,0.23997432,143.2106,284.0124,0.3754
837,OPS 3674 (VELA 4),HAO,23186.01721658,1   837U 64040B   23186.01721658  .00000328  00000-0  00000+0 0  1389,2   837  47.2212 143.0466 3062214 283.1761   0.7017  0.23997953 51736,47.2212,0.3062214,0.23997953,143.0466,283.1761,0.7017
837,OPS 3674 (VELA 4),HAO,23202.67589629,1   837U 64040B   23202.67589629  .00000238  00000-0  00000+0 0  1391,2   837  47.2745 142.7684 3069695 282.8453   0.5719  0.23999584 51772,47.2745,0.3069695,0.23999584,142.7684,282.8453,0.5719
837,OPS 3674 (VELA 4),HAO,23206.83967189,1 00837U 64040B   23206.83967189  .00000340  00000-0  00000-0 0    17,2 00837  47.2795 142.7111 3069434 282.6328   0.6511  0.24000552 52188,47.2795,0.3069434,0.24000552,142.7111,282.6328,0.6511
837,OPS 3674 (VELA 4),HAO,23223.48534136,1   837U 64040B   23223.48534136 -.00000095  00000-0  00000+0 0  1411,2   837  47.3438 142.4568 3086779 281.3222   0.1967  0.23991826 51828,47.3438,0.3086779,0.23991826,142.4568,281.3222,0.1967
837,OPS 3674 (VELA 4),HAO,23231.81123825,1   837U 64040B   23231.81123825  .00000194  00000-0  00000+0 0  1426,2   837  47.3544 142.3214 3089985 281.0350   0.0085  0.23998796 51849,47.3544,0.3089985,0.23998796,142.3214,281.035,0.0085
837,OPS 3674 (VELA 4),HAO,23235.98057754,1 00837U 64040B   23235.98057754  .00000230  00000-0  00000-0 0    11,2 00837  47.3596 142.2685 3094580 280.7571   0.6346  0.23999269 52253,47.3596,0.309458,0.23999269,142.2685,280.7571,0.6346
837,OPS 3674 (VELA 4),HAO,23240.14337639,1 00837U 64040B   23240.14337639  .00000112  00000-0  00000-0 0    17,2 00837  47.3734 142.2132 3099676 280.4891   0.6468  0.23998735 52260,47.3734,0.3099676,0.23998735,142.2132,280.4891,0.6468
837,OPS 3674 (VELA 4),HAO,23243.55286000,1 00837U 64040B   23243.55286000  .00000115  00000-0  00000-0 0    13,2 00837  47.3885 142.1583 3105627 280.2859 295.4560  0.23990674 52285,47.3885,0.3105627,0.23990674,142.1583,280.2859,295.456
837,OPS 3674 (VELA 4),HAO,23244.30585217,1 00837U 64040B   23244.30585217  .00000114  00000-0  00000-0 0    18,2 00837  47.3847 142.1482 3107601 280.2726   0.5320  0.23991346 52273,47.3847,0.3107601,0.23991346,142.1482,280.2726,0.532
837,OPS 3674 (VELA 4),HAO,23247.30433751,1 00837U 64040B   23247.30433751  .00000031  00000-0  00000-0 0    14,2 00837  47.3909 142.0954 3111616 280.1675 259.7337  0.23989129 52292,47.3909,0.3111616,0.23989129,142.0954,280.1675,259.7337
837,OPS 3674 (VELA 4),HAO,23247.71918252,1 00837U 64040B   23247.71918252  .00000013  00000-0  00000-0 0    13,2 00837  47.3917 142.0871 3111445 280.1571 295.5829  0.23988472 52298,47.3917,0.3111445,0.23988472,142.0871,280.1571,295.5829
837,OPS 3674 (VELA 4),HAO,23260.95798277,1   837U 64040B   23260.95798277  .00000323  00000-0  00000+0 0  1505,2   837  47.4250 141.8636 3117259 279.5840   0.1841  0.23998197 51912,47.425,0.3117259,0.23998197,141.8636,279.584,0.1841
837,OPS 3674 (VELA 4),HAO,23260.95916531,1   837U 64040B   23260.95916531  .00000323  00000-0  00000+0 0  1498,2   837  47.4256 141.8642 3116507 279.5821   0.2781  0.23998112 51910,47.4256,0.3116507,0.23998112,141.8642,279.5821,0.2781
837,OPS 3674 (VELA 4),HAO,23265.12126946,1 00837U 64040B   23265.12126946  .00000290  00000-0  00000-0 0    16,2 00837  47.4349 141.8099 3120713 279.3330   0.2062  0.23997485 52337,47.4349,0.3120713,0.23997485,141.8099,279.333,0.2062
837,OPS 3674 (VELA 4),HAO,23265.12598879,1 00837U 64040B   23265.12598879  .00000290  00000-0  00000-0 0    14,2 00837  47.4348 141.8101 3120697 279.3323   0.6144  0.23997439 52326,47.4348,0.3120697,0.23997439,141.8101,279.3323,0.6144
837,OPS 3674 (VELA 4),HAO,23277.61319454,1 00837U 64040B   23277.61319454  .00000103  00000-0  00000-0 0    14,2 00837  47.4799 141.5949 3139710 278.8405   0.1347  0.23990458 52351,47.4799,0.313971,0.23990458,141.5949,278.8405,0.1347
837,OPS 3674 (VELA 4),HAO,23277.61583507,1 00837U 64040B   23277.61583507  .00000103  00000-0  00000-0 0    16,2 00837  47.4798 141.5940 3139689 278.8452   0.3609  0.23990413 52363,47.4798,0.3139689,0.23990413,141.594,278.8452,0.3609
837,OPS 3674 (VELA 4),HAO,23281.77845185,1 00837U 64040B   23281.77845185  .00000214  00000-0  00000-0 0    14,2 00837  47.4994 141.5190 3141057 278.6906   0.2148  0.23997750 52371,47.4994,0.3141057,0.2399775,141.519,278.6906,0.2148
837,OPS 3674 (VELA 4),HAO,23285.94660909,1 00837U 64040B   23285.94660909  .00000447  00000-0  00000-0 0    14,2 00837  47.5049 141.4500 3142785 278.4603   0.6624  0.23998858 52371,47.5049,0.3142785,0.23998858,141.45,278.4603,0.6624
837,OPS 3674 (VELA 4),HAO,23290.10879830,1 00837U 64040B   23290.10879830  .00000555  00000-0  00000-0 0    13,2 00837  47.5129 141.3952 3145894 278.2089   0.6165  0.23998811 52380,47.5129,0.3145894,0.23998811,141.3952,278.2089,0.6165
837,OPS 3674 (VELA 4),HAO,23290.10912290,1 00837U 64040B   23290.10912290  .00000555  00000-0  00000-0 0    11,2 00837  47.5129 141.3947 3145918 278.2093   0.6443  0.23998825 52380,47.5129,0.3145918,0.23998825,141.3947,278.2093,0.6443
837,OPS 3674 (VELA 4),HAO,23294.27231695,1 00837U 64040B   23294.27231695  .00000479  00000-0  00000-0 0    11,2 00837  47.5284 141.3411 3151266 277.9563   0.6635  0.23997521 52395,47.5284,0.3151266,0.23997521,141.3411,277.9563,0.6635
837,OPS 3674 (VELA 4),HAO,23294.27301853,1 00837U 64040B   23294.27301853  .00000479  00000-0  00000-0 0    15,2 00837  47.5279 141.3395 3151083 277.9577   0.7231  0.23997347 52391,47.5279,0.3151083,0.23997347,141.3395,277.9577,0.7231
837,OPS 3674 (VELA 4),HAO,23294.27400994,1 00837U 64040B   23294.27400994  .00000479  00000-0  00000-0 0    11,2 00837  47.5282 141.3409 3151159 277.9561   0.8094  0.23997411 52398,47.5282,0.3151159,0.23997411,141.3409,277.9561,0.8094
837,OPS 3674 (VELA 4),HAO,23298.43500605,1 00837U 64040B   23298.43500605  .00000501  00000-0  00000-0 0    19,2 00837  47.5435 141.2783 3159691 277.7477   0.5531  0.23991141 52404,47.5435,0.3159691,0.23991141,141.2783,277.7477,0.5531
837,OPS 3674 (VELA 4),HAO,23306.76372343,1 00837U 64040B   23306.76372343  .00000325  00000-0  00000-0 0    15,2 00837  47.5776 141.1147 3168258 277.5426   0.4369  0.23994312 52429,47.5776,0.3168258,0.23994312,141.1147,277.5426,0.4369
837,OPS 3674 (VELA 4),HAO,23319.25628719,1 00837U 64040B   23319.25628719  .00000694  00000-0  00000-0 0    13,2 00837  47.6119 140.9247 3177508 276.8391   0.7181  0.23998313 52453,47.6119,0.3177508,0.23998313,140.9247,276.8391,0.7181
837,OPS 3674 (VELA 4),HAO,23331.74513456,1 00837U 64040B   23331.74513456  .00000413  00000-0  00000-0 0    11,2 00837  47.6605 140.7176 3198477 276.3562   0.3418  0.23989205 52487,47.6605,0.3198477,0.23989205,140.7176,276.3562,0.3418
837,OPS 3674 (VELA 4),HAO,23331.74602160,1 00837U 64040B   23331.74602160  .00000413  00000-0  00000-0 0    12,2 00837  47.6606 140.7172 3198462 276.3578   0.4170  0.23989195 52489,47.6606,0.3198462,0.23989195,140.7172,276.3578,0.417
837,OPS 3674 (VELA 4),HAO,23344.23848872,1 00837U 64040B   23344.23848872  .00000710  00000-0  00000-0 0    12,2 00837  47.7019 140.5166 3208143 275.7228   0.6076  0.23999300 52512,47.7019,0.3208143,0.239993,140.5166,275.7228,0.6076
837,OPS 3674 (VELA 4),HAO,23344.23906682,1 00837U 64040B   23344.23906682  .00000710  00000-0  00000-0 0    16,2 00837  47.7018 140.5169 3208136 275.7226   0.6565  0.23999279 52512,47.7018,0.3208136,0.23999279,140.5169,275.7226,0.6565
837,OPS 3674 (VELA 4),HAO,23348.40424372,1   837U 64040B   23348.40424372  .00000599  00000-0  00000+0 0  1655,2   837  47.7191 140.4624 3215165 275.4686   0.8460  0.23997945 52127,47.7191,0.3215165,0.23997945,140.4624,275.4686,0.846
837,OPS 3674 (VELA 4),HAO,23348.40424439,1 00837U 64040B   23348.40424439  .00000599  00000-0  00000-0 0    19,2 00837  47.7192 140.4632 3215137 275.4676   0.8460  0.23997914 52525,47.7192,0.3215137,0.23997914,140.4632,275.4676,0.846
837,OPS 3674 (VELA 4),HAO,24004.22062797,1 00837U 64040B   24004.22062797  .00000494  00000-0  00000-0 0    18\,2 00837  47.7845 140.1156 3243910 274.6117   0.4247  0.23998294 52575,47.7845,0.324391,0.23998294,140.1156,274.6117,0.4247
837,OPS 3674 (VELA 4),HAO,24016.70670441,1 00837U 64040B   24016.70670441  .00000312  00000-0  00000-0 0    14\,2 00837  47.8233 139.9435 3270763 273.9555   0.0033  0.23988775 52614,47.8233,0.3270763,0.23988775,139.9435,273.9555,0.0033
837,OPS 3674 (VELA 4),HAO,24025.03897445,1 00837U 64040B   24025.03897445  .00000033  00000-0  00000-0 0    15\,2 00837  47.8511 139.7845 3281879 273.7540   0.1847  0.23996814 52626,47.8511,0.3281879,0.23996814,139.7845,273.754,0.1847
837,OPS 3674 (VELA 4),HAO,24025.03897860,1 00837U 64040B   24025.03897860  .00000033  00000-0  00000-0 0    16\,2 00837  47.8508 139.7847 3281916 273.7538   0.1848  0.23996807 52626,47.8508,0.3281916,0.23996807,139.7847,273.7538,0.1848
837,OPS 3674 (VELA 4),HAO,24033.36249446,1 00837U 64040B   24033.36249446  .00000303  00000-0  00000-0 0    12\,2 00837  47.8590 139.6604 3292411 273.2981 359.9473  0.23998700 52652,47.859,0.3292411,0.239987,139.6604,273.2981,359.9473
